OUFTI-1                 
1 41458U 16025C   21222.63029265  .00001888  00000-0  94373-4 0  9993
2 41458  98.1509   3.0897 0156393 236.5765 122.0423 15.08905282290649
E-ST@R-II               
1 41459U 16025D   21223.08315693  .00001296  00000-0  67008-4 0  9995
2 41459  98.1485   2.5719 0158232 238.1799 120.3914 15.08302554290659
AAUSAT 4                
1 41460U 16025E   21223.13136376  .00004307  00000-0  20105-3 0  9994
2 41460  98.1480   6.7805 0145322 220.8095 138.2173 15.11510441290971
AIST-2D (RS-48)         
1 41465U 16026B   21223.18353105  .00002178  00000-0  63150-4 0  9998
2 41465  97.1000 105.4065 0010954 166.7794 350.3364 15.36528249295835
SAMSAT-218D             
1 41466U 16026C   21223.20854928  .00020621  00000-0  27985-3 0  9999
2 41466  97.1526 131.7512 0007270  93.7101  64.7513 15.57635151297351
NUSAT-1 (FRESCO)        
1 41557U 16033B   21223.21696799  .00002012  00000-0  72377-4 0  9999
2 41557  97.3953 316.8594 0013949  46.1113  37.2019 15.29712874289904
NUSAT-2 (BATATA)        
1 41558U 16033C   21223.20381647  .00002100  00000-0  70803-4 0  9992
2 41558  97.4072 320.9217 0012753  40.4738  17.8533 15.31808458290104
CARTOSAT-2C             
1 41599U 16040A   21223.18585231  .00000513  00000-0  27492-4 0  9999
2 41599  97.3961 281.4120 0013864 179.5249 255.6213 15.19291445284821
SATHYABAMASAT           
1 41600U 16040B   21223.14656085  .00001935  00000-0  76643-4 0  9995
2 41600  97.2682 278.8780 0014096 138.8092 221.4213 15.26524832285499
LAPAN-A3                
1 41603U 16040E   21223.16151164  .00000257  00000-0  14915-4 0  9998
2 41603  97.2519 268.0042 0013577 163.5593 273.7394 15.20072175284892
BIROS                   
1 41604U 16040F   21222.41948943  .00000651  00000-0  30803-4 0  9997
2 41604  97.2586 273.0560 0013104 144.2324 215.9794 15.22683951285112
SWAYAM                  
1 41607U 16040J   21223.11921381  .00001806  00000-0  72481-4 0  9996
2 41607  97.2635 277.5802 0013758 139.2224 221.0047 15.26153058285388
BEESAT-4                
1 41619U 16040W   21223.09389462  .00001665  00000-0  67813-4 0  9990
2 41619  97.2652 277.6512 0011973 132.4518 227.7735 15.25797502273344
3CAT-2                  
1 41732U 16051B   21223.24825439  .00001844  00000-0  67820-4 0  9991
2 41732  97.3760 143.0613 0011612 320.4564 192.0614 15.29121588277870
PRATHAM                 
1 41783U 16059A   21223.10576702  .00000049  00000-0  18485-4 0  9995
2 41783  97.9602 271.3272 0034881  74.4660 286.0389 14.63156892260248
ALSAT 1N                
1 41789U 16059G   21223.09972742  .00000081  00000-0  24116-4 0  9997
2 41789  97.9656 275.1468 0029541  60.1156 300.2994 14.64443086260449
LISHUI 1-01             
1 41845U 16066E   21223.16790801  .00005524  00000-0  70928-3 0  9998
2 41845  98.7344 329.5505 0265614 311.6587  46.2153 14.59917311251384
CARTOSAT-2D             
1 41948U 17008A   21222.87957906  .00000824  00000-0  42346-4 0  9999
2 41948  97.4386 282.3838 0006414 344.5009  15.5985 15.19233266248644
NAYIF-1 (EO-88)         
1 42017U 17008BX  21223.09958918  .00001785  00000-0  67027-4 0  9996
2 42017  97.3123 289.7221 0004150 274.7023  85.3743 15.28488585249602
ZHUHAI-1 02 (CAS-4B)    
1 42759U 17034B   21223.18792338  .00000332  00000-0  33206-4 0  9999
2 42759  43.0171 240.1527 0007357 152.9530 292.3334 15.10303358229427
ZHUHAI-1 01 (CAS-4A)    
1 42761U 17034D   21223.11308677  .00000408  00000-0  37681-4 0  9999
2 42761  43.0166 239.5779 0007835 154.4747 309.8524 15.10391499229410
UCLSAT                  
1 42765U 17036A   21222.78780423  .00001776  00000-0  73641-4 0  9995
2 42765  97.2456 270.6206 0010382 355.5847   4.5298 15.25105790230450
NIUSAT                  
1 42766U 17036B   21222.72241950  .00001317  00000-0  58904-4 0  9993
2 42766  97.2463 266.8054 0014493 351.5054   8.5935 15.22925830229474
CARTOSAT-2E             
1 42767U 17036C   21223.17083424 -.00002376  00000-0 -10970-3 0  9992
2 42767  97.5005 281.8178 0009016  30.4945  45.3620 15.19185884229250
LITUANICASAT-2          
1 42768U 17036D   21222.81463552  .00002477  00000-0  96757-4 0  9995
2 42768  97.2526 271.6262 0012527 340.8240  19.2526 15.26738855229765
AALTO-1                 
1 42775U 17036L   21222.10633740  .00001125  00000-0  50904-4 0  9996
2 42775  97.2431 266.4329 0013091 353.5875   6.5193 15.22837293229363
URSA MAIOR              
1 42776U 17036M   21222.75620550  .00001182  00000-0  52881-4 0  9992
2 42776  97.2444 267.5575 0012770 350.7398   9.3602 15.23118268229489
COMPASS 2               
1 42777U 17036N   21223.07365352  .00001938  00000-0  77930-4 0  9996
2 42777  97.2512 271.9734 0010686 342.9368  17.1510 15.26036493229742
MAX VALIER SAT          
1 42778U 17036P   21223.07397592  .00001125  00000-0  49532-4 0  9993
2 42778  97.2511 269.8873 0011315 352.7921   7.3152 15.23799159229606
PEGASUS                 
1 42784U 17036V   21222.78321571  .00001615  00000-0  68083-4 0  9997
2 42784  97.2464 270.1110 0011044 356.9572   3.1597 15.24661700229637
NUDTSAT                 
1 42787U 17036Y   21222.91509126  .00002954  00000-0  11498-3 0  9993
2 42787  97.2510 272.8309 0010512 350.6248   9.4791 15.26728389229646
SUCHAI                  
1 42788U 17036Z   21223.08122648  .00001514  00000-0  62481-4 0  9993
2 42788  97.2469 271.4616 0010301 353.2584   6.8514 15.25500285229819
SKCUBE                  
1 42789U 17036AA  21222.79217224  .00001823  00000-0  75279-4 0  9998
2 42789  97.2468 270.8669 0010361 355.0010   5.1123 15.25215243229679
VZLUSAT-1               
1 42790U 17036AB  21222.71347947  .00002404  00000-0  94187-4 0  9993
2 42790  97.2497 272.6229 0009462 350.6957   9.4105 15.26695304229764
ROBUSTA-1B              
1 42792U 17036AD  21222.81797447  .00001725  00000-0  70866-4 0  9993
2 42792  97.2471 271.2930 0009920 355.1831   4.9310 15.25464926229718
D-SAT                   
1 42794U 17036AF  21223.03202288  .00000366  00000-0  36466-4 0  9992
2 42794  97.4600 240.0195 0126537  44.1312 316.9920 14.91634588225237
NORSAT 2                
1 42828U 17042D   21223.09729025  .00000276  00000-0  32468-4 0  9994
2 42828  97.4708  91.2406 0013436 328.6896  31.3523 14.91910920221864
TECHNOSAT               
1 42829U 17042E   21223.07129798  .00000038  00000-0  90955-5 0  9996
2 42829  97.4619  89.6868 0013357 330.9283  29.1191 14.91319507221823
2017-042F               
1 42830U 17042F   21223.09916699  .00000579  00000-0  60811-4 0  9991
2 42830  97.4746  92.5563 0013101 322.8596  37.1716 14.92987259221957
FLYING LAPTOP           
1 42831U 17042G   21222.77578651  .00000160  00000-0  21267-4 0  9996
2 42831  97.4637  89.6472 0013230 332.0532  27.9955 14.91326656221789
CORVUS BC2              
1 42846U 17042X   21222.87833824  .00000005  00000-0  56578-5 0  9991
2 42846  97.4653  92.0939 0008591 325.1226  34.9430 14.92334618221959
CORVUS BC1              
1 42847U 17042Y   21222.44318534  .00000310  00000-0  35345-4 0  9998
2 42847  97.4658  91.9299 0008275 325.9762  34.0926 14.92432640221892
SIMPL                   
1 42983U 98067NF  21223.03472046  .00006880  00000-0  66252-4 0  9999
2 42983  51.6376 341.8469 0002558 193.6363 166.4564 15.67860286215966
CZ-4C R/B               
1 43012U 17072C   21222.42985630  .00000044  00000-0  20720-4 0  9996
2 43012  98.7282 239.6068 0127330 187.4931 172.4366 14.56186848198593
RADFXSAT (FOX-1B)       
1 43017U 17073E   21222.16550154  .00000567  00000-0  48303-4 0  9999
2 43017  97.7012 124.0152 0255811 124.9249 237.6289 14.79631527201062
EAGLESAT 1              
1 43018U 17073F   21222.29571090  .00001026  00000-0  81860-4 0  9992
2 43018  97.7023 125.1210 0252283 120.8605 241.7688 14.80738389201013
ECAMSAT                 
1 43019U 98067NG  21222.46495668  .00032539  00000-0  15011-3 0  9997
2 43019  51.6378 304.2396 0000568 300.1334  59.9612 15.83236041298733
INS-1C                  
1 43116U 18004F   21223.09920235  .00001468  00000-0  60961-4 0  9993
2 43116  97.4115 297.0657 0009276  20.0193 340.1407 15.25397019198974
FLOCK 3P'-3             
1 43119U 18004J   21223.09578783  .00000959  00000-0  41974-4 0  9990
2 43119  97.4102 295.8719 0010374  28.0023 332.1770 15.24434255198909
FLOCK 3P'-2             
1 43120U 18004K   21222.42715570  .00000938  00000-0  41521-4 0  9990
2 43120  97.4111 294.9869 0010512  30.8051 329.3801 15.24075386198788
FLOCK 3P'-1             
1 43121U 18004L   21223.12274035  .00002674  00000-0  10167-3 0  9995
2 43121  97.4104 297.8225 0009125  21.7375 338.4250 15.27633563198964
FLOCK 3P'-4             
1 43122U 18004M   21222.42155046  .00000886  00000-0  39369-4 0  9997
2 43122  97.4120 295.0961 0010372  32.7880 327.3999 15.24103309198783
MICROMAS-2A             
1 43131U 18004W   21222.16320467  .00002673  00000-0  10120-3 0  9998
2 43131  97.4094 297.7528 0008673  24.5624 335.6027 15.27772986198967
PICSAT                  
1 43132U 18004X   21222.48443652  .00001645  00000-0  66556-4 0  9999
2 43132  97.4071 296.5437 0009556  28.0277 332.1474 15.26096367198928
CNUSAIL-1               
1 43133U 18004Y   21222.48294741  .00001362  00000-0  57352-4 0  9993
2 43133  97.4040 295.4506 0009842  30.3171 329.8634 15.25046436198851
2018-004Z               
1 43134U 18004Z   21222.41720660  .00001700  00000-0  69519-4 0  9995
2 43134  97.4057 296.1242 0009539  29.7537 330.4242 15.25703706198882
FOX-1D (AO-92)          
1 43137U 18004AC  21222.84657084  .00001294  00000-0  53947-4 0  9990
2 43137  97.4042 296.3218 0009394  29.9368 330.2405 15.25463664198950
STEP CUBE LAB           
1 43138U 18004AD  21223.02337088  .00001952  00000-0  75701-4 0  9994
2 43138  97.4089 298.4141 0008733  26.3601 333.8080 15.27304464199084
XIAOXIANG-2             
1 43155U 18008A   21223.16984147  .00001455  00000-0  86678-4 0  9999
2 43155  97.3996 286.4879 0018444 135.8526 302.0563 15.12588677196340
